{"type": "FeatureCollection", "features": [ {"type": "Feature", "properties": {"norad_id": 37834, "name": "INTELSAT 18 (IS-18)", "group": "intelsat", "lat": 0.0008111927045559406, "lon": 130.49128832332988, "alt_km": 35792.05353311994, "timestamp": "2025-12-18T14:52:07.697998+00:00", "meta": {"OBJECT_NAME": "INTELSAT 18 (IS-18)", "OBJECT_ID": "2011-056A", "EPOCH": "2025-12-17T21:01:51.288384", "MEAN_MOTION": 1.00273019, "ECCENTRICITY": 0.0001724, "INCLINATION": 0.0252, "RA_OF_ASC_NODE": 286.8744, "ARG_OF_PERICENTER": 354.6111, "MEAN_ANOMALY": 300.7224, "EPHEMERIS_TYPE": 0, "CLASSIFICATION_TYPE": "U", "NORAD_CAT_ID": 37834, "ELEMENT_SET_NO": 999, "REV_AT_EPOCH": 5199, "BSTAR": 0, "MEAN_MOTION_DOT": 7.8e-07, "MEAN_MOTION_DDOT": 0}, "tle": {"line1": "1 37834U 11056A   25351.87628806  .00000078  00000+0  00000+0 0  9992", "line2": "2 37834   0.0252 286.8744 0001724 354.6111 300.7224  1.00273019 51995"}}, "geometry": {"type": "Point", "coordinates": [130.49128832332988, 0.0008111927045559406]}}, {"type": "Feature", "properties": {"norad_id": 38098, "name": "INTELSAT 22 (IS-22)", "group": "intelsat", "lat": -0.012267522453111432, "lon": 22.612881236187363, "alt_km": 35787.37800571995, "timestamp": "2025-12-18T14:52:07.698011+00:00", "meta": {"OBJECT_NAME": "INTELSAT 22 (IS-22)", "OBJECT_ID": "2012-011A", "EPOCH": "2025-12-18T01:39:09.725184", "MEAN_MOTION": 1.00269511, "ECCENTRICITY": 0.00018825, "INCLINATION": 0.045, "RA_OF_ASC_NODE": 57.0449, "ARG_OF_PERICENTER": 230.9978, "MEAN_ANOMALY": 255.7802, "EPHEMERIS_TYPE": 0, "CLASSIFICATION_TYPE": "U", "NORAD_CAT_ID": 38098, "ELEMENT_SET_NO": 999, "REV_AT_EPOCH": 537, "BSTAR": 0, "MEAN_MOTION_DOT": 0, "MEAN_MOTION_DDOT": 0}, "tle": {"line1": "1 38098U 12011A   25352.06886256  .00000000  00000+0  00000+0 0  9999", "line2": "2 38098   0.0450  57.0449 0001882 230.9978 255.7802  1.00269511  5374"}}, "geometry": {"type": "Point", "coordinates": [22.612881236187363, -0.012267522453111432]}}, {"type": "Feature", "properties": {"norad_id": 38356, "name": "INTELSAT 19 (IS-19)", "group": "intelsat", "lat": 0.02441037159822722, "lon": 116.50362028475355, "alt_km": 35798.61290976063, "timestamp": "2025-12-18T14:52:07.698023+00:00", "meta": {"OBJECT_NAME": "INTELSAT 19 (IS-19)", "OBJECT_ID": "2012-030A", "EPOCH": "2025-12-18T02:59:38.609952", "MEAN_MOTION": 1.00272137, "ECCENTRICITY": 0.00031737, "INCLINATION": 0.0096, "RA_OF_ASC_NODE": 334.1766, "ARG_OF_PERICENTER": 302.5546, "MEAN_ANOMALY": 21.1869, "EPHEMERIS_TYPE": 0, "CLASSIFICATION_TYPE": "U", "NORAD_CAT_ID": 38356, "ELEMENT_SET_NO": 999, "REV_AT_EPOCH": 4863, "BSTAR": 0, "MEAN_MOTION_DOT": -3.1e-07, "MEAN_MOTION_DDOT": 0}, "tle": {"line1": "1 38356U 12030A   25352.12475243 -.00000031  00000+0  00000+0 0  9999", "line2": "2 38356   0.0096 334.1766 0003173 302.5546  21.1869  1.00272137 48632"}}, "geometry": {"type": "Point", "coordinates": [116.50362028475355, 0.02441037159822722]}}, {"type": "Feature", "properties": {"norad_id": 38740, "name": "INTELSAT 20 (IS-20)", "group": "intelsat", "lat": -0.003771138752586512, "lon": 19.00489600042276, "alt_km": 35796.65586679785, "timestamp": "2025-12-18T14:52:07.698034+00:00", "meta": {"OBJECT_NAME": "INTELSAT 20 (IS-20)", "OBJECT_ID": "2012-043A", "EPOCH": "2025-12-18T01:38:09.819744", "MEAN_MOTION": 1.00272585, "ECCENTRICITY": 0.00026462, "INCLINATION": 0.0238, "RA_OF_ASC_NODE": 82.2967, "ARG_OF_PERICENTER": 103.4668, "MEAN_ANOMALY": 354.2234, "EPHEMERIS_TYPE": 0, "CLASSIFICATION_TYPE": "U", "NORAD_CAT_ID": 38740, "ELEMENT_SET_NO": 999, "REV_AT_EPOCH": 4893, "BSTAR": 0, "MEAN_MOTION_DOT": 0, "MEAN_MOTION_DDOT": 0}, "tle": {"line1": "1 38740U 12043A   25352.06816921  .00000000  00000+0  00000+0 0  9990", "line2": "2 38740   0.0238  82.2967 0002646 103.4668 354.2234  1.00272585 48934"}}, "geometry": {"type": "Point", "coordinates": [19.00489600042276, -0.003771138752586512]}}, {"type": "Feature", "properties": {"norad_id": 38749, "name": "INTELSAT 21 (IS-21)", "group": "intelsat", "lat": -0.034856468516401076, "lon": -107.50713980091082, "alt_km": 35779.14376665196, "timestamp": "2025-12-18T14:52:07.698046+00:00", "meta": {"OBJECT_NAME": "INTELSAT 21 (IS-21)", "OBJECT_ID": "2012-045A", "EPOCH": "2025-12-18T06:10:14.216736", "MEAN_MOTION": 1.00268834, "ECCENTRICITY": 0.0001844, "INCLINATION": 0.031, "RA_OF_ASC_NODE": 283.7071, "ARG_OF_PERICENTER": 329.8226, "MEAN_ANOMALY": 228.1491, "EPHEMERIS_TYPE": 0, "CLASSIFICATION_TYPE": "U", "NORAD_CAT_ID": 38749, "ELEMENT_SET_NO": 999, "REV_AT_EPOCH": 4871, "BSTAR": 0, "MEAN_MOTION_DOT": -2.6e-06, "MEAN_MOTION_DDOT": 0}, "tle": {"line1": "1 38749U 12045A   25352.25710899 -.00000260  00000+0  00000+0 0  9998", "line2": "2 38749   0.0310 283.7071 0001844 329.8226 228.1491  1.00268834 48713"}}, "geometry": {"type": "Point", "coordinates": [-107.50713980091082, -0.034856468516401076]}}, {"type": "Feature", "properties": {"norad_id": 38867, "name": "INTELSAT 23 (IS-23)", "group": "intelsat", "lat": -0.019046359590821623, "lon": -102.45352214241782, "alt_km": 35784.07286019904, "timestamp": "2025-12-18T14:52:07.698058+00:00", "meta": {"OBJECT_NAME": "INTELSAT 23 (IS-23)", "OBJECT_ID": "2012-057A", "EPOCH": "2025-12-17T09:38:59.623872", "MEAN_MOTION": 1.00273732, "ECCENTRICITY": 3.78e-05, "INCLINATION": 0.0295, "RA_OF_ASC_NODE": 83.0302, "ARG_OF_PERICENTER": 175.0842, "MEAN_ANOMALY": 279.9522, "EPHEMERIS_TYPE": 0, "CLASSIFICATION_TYPE": "U", "NORAD_CAT_ID": 38867, "ELEMENT_SET_NO": 999, "REV_AT_EPOCH": 4813, "BSTAR": 0, "MEAN_MOTION_DOT": -2.6e-06, "MEAN_MOTION_DDOT": 0}, "tle": {"line1": "1 38867U 12057A   25351.40207898 -.00000260  00000+0  00000+0 0  9998", "line2": "2 38867   0.0295  83.0302 0000378 175.0842 279.9522  1.00273732 48138"}}, "geometry": {"type": "Point", "coordinates": [-102.45352214241782, -0.019046359590821623]}}, {"type": "Feature", "properties": {"norad_id": 39360, "name": "FM-6", "group": "intelsat", "lat": 0.0011170237288481034, "lon": -165.65894879535537, "alt_km": 35774.9158719599, "timestamp": "2025-12-18T14:52:07.698069+00:00", "meta": {"OBJECT_NAME": "FM-6", "OBJECT_ID": "2013-058A", "EPOCH": "2025-12-17T23:02:47.205312", "MEAN_MOTION": 1.00269722, "ECCENTRICITY": 0.00028982, "INCLINATION": 0.0123, "RA_OF_ASC_NODE": 66.6407, "ARG_OF_PERICENTER": 112.2376, "MEAN_ANOMALY": 137.485, "EPHEMERIS_TYPE": 0, "CLASSIFICATION_TYPE": "U", "NORAD_CAT_ID": 39360, "ELEMENT_SET_NO": 999, "REV_AT_EPOCH": 4425, "BSTAR": 0, "MEAN_MOTION_DOT": 8e-08, "MEAN_MOTION_DDOT": 0}, "tle": {"line1": "1 39360U 13058A   25351.96026858  .00000008  00000+0  00000+0 0  9994", "line2": "2 39360   0.0123  66.6407 0002898 112.2376 137.4850  1.00269722 44259"}}, "geometry": {"type": "Point", "coordinates": [-165.65894879535537, 0.0011170237288481034]}}, {"type": "Feature", "properties": {"norad_id": 40271, "name": "INTELSAT 30 (IS-30)", "group": "intelsat", "lat": -0.015301687009193996, "lon": -144.54177151838743, "alt_km": 35790.8121108718, "timestamp": "2025-12-18T14:52:07.698097+00:00", "meta": {"OBJECT_NAME": "INTELSAT 30 (IS-30)", "OBJECT_ID": "2014-062A", "EPOCH": "2025-12-18T06:03:38.488320", "MEAN_MOTION": 1.0027101, "ECCENTRICITY": 0.00015973, "INCLINATION": 0.0174, "RA_OF_ASC_NODE": 29.32, "ARG_OF_PERICENTER": 54.5236, "MEAN_ANOMALY": 359.13, "EPHEMERIS_TYPE": 0, "CLASSIFICATION_TYPE": "U", "NORAD_CAT_ID": 40271, "ELEMENT_SET_NO": 999, "REV_AT_EPOCH": 498, "BSTAR": 0, "MEAN_MOTION_DOT": -1.26e-06, "MEAN_MOTION_DDOT": 0}, "tle": {"line1": "1 40271U 14062A   25352.25252880 -.00000126  00000+0  00000+0 0  9994", "line2": "2 40271   0.0174  29.3200 0001597  54.5236 359.1300  1.00271010  4985"}}, "geometry": {"type": "Point", "coordinates": [-144.54177151838743, -0.015301687009193996]}}, {"type": "Feature", "properties": {"norad_id": 40333, "name": "DIRECTV 14", "group": "intelsat", "lat": -0.034156343831001565, "lon": -148.71651494563682, "alt_km": 35784.70603054484, "timestamp": "2025-12-18T14:52:07.698110+00:00", "meta": {"OBJECT_NAME": "DIRECTV 14", "OBJECT_ID": "2014-078B", "EPOCH": "2025-12-17T21:24:49.087584", "MEAN_MOTION": 1.00270651, "ECCENTRICITY": 6.041e-05, "INCLINATION": 0.0191, "RA_OF_ASC_NODE": 340.5733, "ARG_OF_PERICENTER": 183.4155, "MEAN_ANOMALY": 144.7598, "EPHEMERIS_TYPE": 0, "CLASSIFICATION_TYPE": "U", "NORAD_CAT_ID": 40333, "ELEMENT_SET_NO": 999, "REV_AT_EPOCH": 4022, "BSTAR": 0, "MEAN_MOTION_DOT": -1e-06, "MEAN_MOTION_DDOT": 0}, "tle": {"line1": "1 40333U 14078B   25351.89223481 -.00000100  00000+0  00000+0 0  9996", "line2": "2 40333   0.0191 340.5733 0000604 183.4155 144.7598  1.00270651 40226"}}, "geometry": {"type": "Point", "coordinates": [-148.71651494563682, -0.034156343831001565]}}, {"type": "Feature", "properties": {"norad_id": 40663, "name": "DIRECTV 15", "group": "intelsat", "lat": -0.015718440967180076, "lon": -152.36551247572413, "alt_km": 35785.97695627734, "timestamp": "2025-12-18T14:52:07.698121+00:00", "meta": {"OBJECT_NAME": "DIRECTV 15", "OBJECT_ID": "2015-026A", "EPOCH": "2025-12-18T05:24:41.041728", "MEAN_MOTION": 1.00271663, "ECCENTRICITY": 2.319e-05, "INCLINATION": 0.0086, "RA_OF_ASC_NODE": 10.5051, "ARG_OF_PERICENTER": 116.1264, "MEAN_ANOMALY": 298.7626, "EPHEMERIS_TYPE": 0, "CLASSIFICATION_TYPE": "U", "NORAD_CAT_ID": 40663, "ELEMENT_SET_NO": 999, "REV_AT_EPOCH": 3864, "BSTAR": 0, "MEAN_MOTION_DOT": -7.8e-07, "MEAN_MOTION_DDOT": 0}, "tle": {"line1": "1 40663U 15026A   25352.22547502 -.00000078  00000+0  00000+0 0  9991", "line2": "2 40663   0.0086  10.5051 0000231 116.1264 298.7626  1.00271663 38641"}}, "geometry": {"type": "Point", "coordinates": [-152.36551247572413, -0.015718440967180076]}}]}